ASTROCAST-0103          
1 47487U 21006CC  26068.70056502  .00087857  00000+0  63760-3 0  9995
2 47487  97.2627 138.0845 0005706 147.8600 212.3013 15.73114428285528
STARLINK-11399 [DTC]    
1 63063U 25035M   26068.87758911  .00208770  00000+0  15817-2 0  9998
2 63063  42.9998  13.9148 0001616 272.9727  87.0956 15.70964752 61252
